GLOBALSTAR M024         
1 25883U 99043A   26022.61592698 -.00000010  00000+0  19377-2 0  9999
2 25883  51.9984 245.5150 0002615  86.1699 307.2186 11.10167085139234
GLOBALSTAR M027         
1 25884U 99043B   26022.80756794 -.00000035  00000+0  10858-2 0  9992
2 25884  52.0249 329.2865 0021597 346.9442  13.0791 11.04372662165502
GLOBALSTAR M054         
1 25885U 99043C   26022.50202190 -.00000120  00000+0 -12401-2 0  9998
2 25885  52.0148  60.4571 0005056 191.7913 313.4732 11.39223471144049
GLOBALSTAR M053         
1 25886U 99043D   26022.98416266 -.00000065  00000+0  10531-3 0  9992
2 25886  52.0008  18.5924 0003477  96.1031 292.1222 11.27669441144242
GLOBALSTAR M058         
1 25907U 99049A   26022.95439341 -.00000056  00000+0  38628-3 0  9995
2 25907  51.9918 242.3359 0002043   1.0211 359.0627 11.93207595567776
GLOBALSTAR M050         
1 25908U 99049B   26022.36008527 -.00000055  00000+0  37790-3 0  9997
2 25908  51.9966 235.2233 0010119 105.2547  65.9943 12.07465359174660
GLOBALSTAR M033         
1 25909U 99049C   26022.53927027  .00000047  00000+0  13343-2 0  9999
2 25909  51.9913  91.4129 0013843 357.8909   2.1878 12.20299774562520
GLOBALSTAR M055         
1 25910U 99049D   26022.52322735 -.00000039  00000+0  47643-3 0  9998
2 25910  52.0019  91.5226 0006937 221.8411 138.1911 12.29439682195268
